[{"OBJECT_NAME":"STARLINK-3446","OBJECT_ID":"2022-016AK","EPOCH":"2026-03-09T21:24:54.288000","MEAN_MOTION":15.08836611,"ECCENTRICITY":0.00013552,"INCLINATION":53.2176,"RA_OF_ASC_NODE":318.2616,"ARG_OF_PERICENTER":87.5489,"MEAN_ANOMALY":272.5659,"EPHEMERIS_TYPE":0,"CLASSIFICATION_TYPE":"U","NORAD_CAT_ID":51747,"ELEMENT_SET_NO":999,"REV_AT_EPOCH":22359,"BSTAR":-6.751311e-5,"MEAN_MOTION_DOT":-1.362e-5,"MEAN_MOTION_DDOT":0},{"OBJECT_NAME":"CZ-6A DEB","OBJECT_ID":"2022-151RK","EPOCH":"2026-03-09T04:16:52.342176","MEAN_MOTION":15.00981633,"ECCENTRICITY":0.00383954,"INCLINATION":98.6273,"RA_OF_ASC_NODE":143.4522,"ARG_OF_PERICENTER":188.2396,"MEAN_ANOMALY":171.8199,"EPHEMERIS_TYPE":0,"CLASSIFICATION_TYPE":"U","NORAD_CAT_ID":54922,"ELEMENT_SET_NO":999,"REV_AT_EPOCH":17321,"BSTAR":0.0056092635,"MEAN_MOTION_DOT":0.00073321,"MEAN_MOTION_DDOT":0}]
